{"type": "FeatureCollection", "features": [ {"type": "Feature", "properties": {"norad_id": 43010, "name": "FENGYUN 3D", "group": "weather", "lat": -68.72013996769797, "lon": -31.429034905076097, "alt_km": 833.5386026997949, "timestamp": "2025-12-04T09:47:37.166118+00:00", "meta": {"OBJECT_NAME": "FENGYUN 3D", "OBJECT_ID": "2017-072A", "EPOCH": "2025-12-04T05:03:05.383008", "MEAN_MOTION": 14.19680014, "ECCENTRICITY": 6.3e-05, "INCLINATION": 98.9881, "RA_OF_ASC_NODE": 304.3935, "ARG_OF_PERICENTER": 216.0501, "MEAN_ANOMALY": 144.0632, "EPHEMERIS_TYPE": 0, "CLASSIFICATION_TYPE": "U", "NORAD_CAT_ID": 43010, "ELEMENT_SET_NO": 999, "REV_AT_EPOCH": 41732, "BSTAR": 0.00012533, "MEAN_MOTION_DOT": 2.19e-06, "MEAN_MOTION_DDOT": 0}, "tle": {"line1": "1 43010U 17072A   25338.21047897  .00000219  00000+0  12533-3 0  9992", "line2": "2 43010  98.9881 304.3935 0000630 216.0501 144.0632 14.19680014417325"}}, "geometry": {"type": "Point", "coordinates": [-31.429034905076097, -68.72013996769797]}}, {"type": "Feature", "properties": {"norad_id": 43013, "name": "NOAA 20 (JPSS-1)", "group": "weather", "lat": 80.61423636888266, "lon": -154.06047857974474, "alt_km": 818.0683904196712, "timestamp": "2025-12-04T09:47:37.166129+00:00", "meta": {"OBJECT_NAME": "NOAA 20 (JPSS-1)", "OBJECT_ID": "2017-073A", "EPOCH": "2025-12-04T02:37:13.996128", "MEAN_MOTION": 14.19522201, "ECCENTRICITY": 0.0002074, "INCLINATION": 98.7586, "RA_OF_ASC_NODE": 274.5009, "ARG_OF_PERICENTER": 99.6938, "MEAN_ANOMALY": 260.4473, "EPHEMERIS_TYPE": 0, "CLASSIFICATION_TYPE": "U", "NORAD_CAT_ID": 43013, "ELEMENT_SET_NO": 999, "REV_AT_EPOCH": 41679, "BSTAR": 0.00010786, "MEAN_MOTION_DOT": 1.83e-06, "MEAN_MOTION_DDOT": 0}, "tle": {"line1": "1 43013U 17073A   25338.10918977  .00000183  00000+0  10786-3 0  9998", "line2": "2 43013  98.7586 274.5009 0002074  99.6938 260.4473 14.19522201416790"}}, "geometry": {"type": "Point", "coordinates": [-154.06047857974474, 80.61423636888266]}}, {"type": "Feature", "properties": {"norad_id": 43226, "name": "GOES 17", "group": "weather", "lat": 0.2952496476797771, "lon": 130.84002195329725, "alt_km": 35797.28997832132, "timestamp": "2025-12-04T09:47:37.166142+00:00", "meta": {"OBJECT_NAME": "GOES 17", "OBJECT_ID": "2018-022A", "EPOCH": "2025-12-03T13:19:45.670080", "MEAN_MOTION": 1.00271328, "ECCENTRICITY": 0.00034226, "INCLINATION": 0.4342, "RA_OF_ASC_NODE": 89.3189, "ARG_OF_PERICENTER": 181.5531, "MEAN_ANOMALY": 272.2117, "EPHEMERIS_TYPE": 0, "CLASSIFICATION_TYPE": "U", "NORAD_CAT_ID": 43226, "ELEMENT_SET_NO": 999, "REV_AT_EPOCH": 2846, "BSTAR": 0, "MEAN_MOTION_DOT": -1.65e-06, "MEAN_MOTION_DDOT": 0}, "tle": {"line1": "1 43226U 18022A   25337.55538970 -.00000165  00000+0  00000+0 0  9993", "line2": "2 43226   0.4342  89.3189 0003422 181.5531 272.2117  1.00271328 28461"}}, "geometry": {"type": "Point", "coordinates": [130.84002195329725, 0.2952496476797771]}}, {"type": "Feature", "properties": {"norad_id": 43491, "name": "FENGYUN 2H", "group": "weather", "lat": -1.5803083860954463, "lon": -60.26949422023919, "alt_km": 35779.39685886616, "timestamp": "2025-12-04T09:47:37.166161+00:00", "meta": {"OBJECT_NAME": "FENGYUN 2H", "OBJECT_ID": "2018-050A", "EPOCH": "2025-12-03T20:13:37.295328", "MEAN_MOTION": 1.00271361, "ECCENTRICITY": 0.00029221, "INCLINATION": 2.5261, "RA_OF_ASC_NODE": 81.4292, "ARG_OF_PERICENTER": 162.7976, "MEAN_ANOMALY": 211.4639, "EPHEMERIS_TYPE": 0, "CLASSIFICATION_TYPE": "U", "NORAD_CAT_ID": 43491, "ELEMENT_SET_NO": 999, "REV_AT_EPOCH": 2748, "BSTAR": 0, "MEAN_MOTION_DOT": -1.14e-06, "MEAN_MOTION_DDOT": 0}, "tle": {"line1": "1 43491U 18050A   25337.84279277 -.00000114  00000+0  00000+0 0  9996", "line2": "2 43491   2.5261  81.4292 0002922 162.7976 211.4639  1.00271361 27486"}}, "geometry": {"type": "Point", "coordinates": [-60.26949422023919, -1.5803083860954463]}}, {"type": "Feature", "properties": {"norad_id": 43689, "name": "METOP-C", "group": "weather", "lat": 11.300168209986673, "lon": -141.94307368153306, "alt_km": 822.0696921186673, "timestamp": "2025-12-04T09:47:37.166174+00:00", "meta": {"OBJECT_NAME": "METOP-C", "OBJECT_ID": "2018-087A", "EPOCH": "2025-12-03T22:52:05.099520", "MEAN_MOTION": 14.21506812, "ECCENTRICITY": 0.00016849, "INCLINATION": 98.6942, "RA_OF_ASC_NODE": 35.8565, "ARG_OF_PERICENTER": 56.6673, "MEAN_ANOMALY": 303.4666, "EPHEMERIS_TYPE": 0, "CLASSIFICATION_TYPE": "U", "NORAD_CAT_ID": 43689, "ELEMENT_SET_NO": 999, "REV_AT_EPOCH": 36709, "BSTAR": 0.00015816239, "MEAN_MOTION_DOT": 3.02e-06, "MEAN_MOTION_DDOT": 0}, "tle": {"line1": "1 43689U 18087A   25337.95283680  .00000302  00000+0  15816-3 0  9993", "line2": "2 43689  98.6942  35.8565 0001684  56.6673 303.4666 14.21506812367097"}}, "geometry": {"type": "Point", "coordinates": [-141.94307368153306, 11.300168209986673]}}, {"type": "Feature", "properties": {"norad_id": 43823, "name": "GEO-KOMPSAT-2A", "group": "weather", "lat": -0.03595617871358711, "lon": -11.373393083715868, "alt_km": 35788.28578580399, "timestamp": "2025-12-04T09:47:37.166186+00:00", "meta": {"OBJECT_NAME": "GEO-KOMPSAT-2A", "OBJECT_ID": "2018-100A", "EPOCH": "2025-12-03T17:35:40.686720", "MEAN_MOTION": 1.00269729, "ECCENTRICITY": 5.41e-05, "INCLINATION": 0.0596, "RA_OF_ASC_NODE": 121.241, "ARG_OF_PERICENTER": 95.287, "MEAN_ANOMALY": 248.4703, "EPHEMERIS_TYPE": 0, "CLASSIFICATION_TYPE": "U", "NORAD_CAT_ID": 43823, "ELEMENT_SET_NO": 999, "REV_AT_EPOCH": 2567, "BSTAR": 0, "MEAN_MOTION_DOT": -3.26e-06, "MEAN_MOTION_DDOT": 0}, "tle": {"line1": "1 43823U 18100A   25337.73310980 -.00000326  00000+0  00000+0 0  9991", "line2": "2 43823   0.0596 121.2410 0000541  95.2870 248.4703  1.00269729 25678"}}, "geometry": {"type": "Point", "coordinates": [-11.373393083715868, -0.03595617871358711]}}, {"type": "Feature", "properties": {"norad_id": 44387, "name": "METEOR-M2 2", "group": "weather", "lat": 20.737706697971046, "lon": 141.43521030750816, "alt_km": 810.1185543230213, "timestamp": "2025-12-04T09:47:37.166198+00:00", "meta": {"OBJECT_NAME": "METEOR-M2 2", "OBJECT_ID": "2019-038A", "EPOCH": "2025-12-04T05:40:41.038176", "MEAN_MOTION": 14.24285962, "ECCENTRICITY": 9.19e-05, "INCLINATION": 98.8964, "RA_OF_ASC_NODE": 317.8618, "ARG_OF_PERICENTER": 165.2797, "MEAN_ANOMALY": 194.8408, "EPHEMERIS_TYPE": 0, "CLASSIFICATION_TYPE": "U", "NORAD_CAT_ID": 44387, "ELEMENT_SET_NO": 999, "REV_AT_EPOCH": 33354, "BSTAR": 0.0001662, "MEAN_MOTION_DOT": 3.38e-06, "MEAN_MOTION_DDOT": 0}, "tle": {"line1": "1 44387U 19038A   25338.23658609  .00000338  00000+0  16620-3 0  9998", "line2": "2 44387  98.8964 317.8618 0000919 165.2797 194.8408 14.24285962333547"}}, "geometry": {"type": "Point", "coordinates": [141.43521030750816, 20.737706697971046]}}, {"type": "Feature", "properties": {"norad_id": 47719, "name": "ARKTIKA-M 1", "group": "weather", "lat": 60.445877864088914, "lon": -157.90553128948895, "alt_km": 36112.822401508885, "timestamp": "2025-12-04T09:47:37.166212+00:00", "meta": {"OBJECT_NAME": "ARKTIKA-M 1", "OBJECT_ID": "2021-016A", "EPOCH": "2025-12-01T02:41:41.634816", "MEAN_MOTION": 2.00613156, "ECCENTRICITY": 0.71974708, "INCLINATION": 63.1756, "RA_OF_ASC_NODE": 85.6045, "ARG_OF_PERICENTER": 269.084, "MEAN_ANOMALY": 15.7076, "EPHEMERIS_TYPE": 0, "CLASSIFICATION_TYPE": "U", "NORAD_CAT_ID": 47719, "ELEMENT_SET_NO": 999, "REV_AT_EPOCH": 3481, "BSTAR": 0, "MEAN_MOTION_DOT": -1.2e-07, "MEAN_MOTION_DDOT": 0}, "tle": {"line1": "1 47719U 21016A   25335.11228744 -.00000012  00000+0  00000+0 0  9997", "line2": "2 47719  63.1756  85.6045 7197470 269.0840  15.7076  2.00613156 34816"}}, "geometry": {"type": "Point", "coordinates": [-157.90553128948895, 60.445877864088914]}}, {"type": "Feature", "properties": {"norad_id": 49008, "name": "FENGYUN 3E", "group": "weather", "lat": -68.6169813308193, "lon": 135.87258539390928, "alt_km": 832.822964535073, "timestamp": "2025-12-04T09:47:37.166224+00:00", "meta": {"OBJECT_NAME": "FENGYUN 3E", "OBJECT_ID": "2021-062A", "EPOCH": "2025-12-03T22:28:13.847232", "MEAN_MOTION": 14.19878233, "ECCENTRICITY": 7.384e-05, "INCLINATION": 98.7476, "RA_OF_ASC_NODE": 338.5619, "ARG_OF_PERICENTER": 322.2311, "MEAN_ANOMALY": 37.8814, "EPHEMERIS_TYPE": 0, "CLASSIFICATION_TYPE": "U", "NORAD_CAT_ID": 49008, "ELEMENT_SET_NO": 999, "REV_AT_EPOCH": 22887, "BSTAR": 5.6923169e-05, "MEAN_MOTION_DOT": 7.7e-07, "MEAN_MOTION_DDOT": 0}, "tle": {"line1": "1 49008U 21062A   25337.93627138  .00000077  00000+0  56923-4 0  9993", "line2": "2 49008  98.7476 338.5619 0000738 322.2311  37.8814 14.19878233228875"}}, "geometry": {"type": "Point", "coordinates": [135.87258539390928, -68.6169813308193]}}, {"type": "Feature", "properties": {"norad_id": 51850, "name": "GOES 18", "group": "weather", "lat": -0.0008245231574198429, "lon": 83.36438769446397, "alt_km": 35789.38903940671, "timestamp": "2025-12-04T09:47:37.166237+00:00", "meta": {"OBJECT_NAME": "GOES 18", "OBJECT_ID": "2022-021A", "EPOCH": "2025-12-03T16:30:38.739168", "MEAN_MOTION": 1.00270453, "ECCENTRICITY": 7.983e-05, "INCLINATION": 0.0031, "RA_OF_ASC_NODE": 64.4496, "ARG_OF_PERICENTER": 225.9944, "MEAN_ANOMALY": 252.9877, "EPHEMERIS_TYPE": 0, "CLASSIFICATION_TYPE": "U", "NORAD_CAT_ID": 51850, "ELEMENT_SET_NO": 999, "REV_AT_EPOCH": 463, "BSTAR": 0, "MEAN_MOTION_DOT": 1.14e-06, "MEAN_MOTION_DDOT": 0}, "tle": {"line1": "1 51850U 22021A   25337.68794837  .00000114  00000+0  00000+0 0  9992", "line2": "2 51850   0.0031  64.4496 0000798 225.9944 252.9877  1.00270453  4632"}}, "geometry": {"type": "Point", "coordinates": [83.36438769446397, -0.0008245231574198429]}}]}